{
  "type": "FeatureCollection",
  "features": [
    {
      "type": "Feature",
      "properties": {
        "norad_id": 22490,
        "name": "SCD 1",
        "group": "resource",
        "lat": -17.348600180814298,
        "lon": -178.99901297888968,
        "alt_km": 713.1915420680834,
        "timestamp": "2025-12-06T05:40:08.892636+00:00",
        "meta_object_name": "SCD 1",
        "meta_object_id": "1993-009B",
        "meta_epoch": "2025-12-05T07:12:13.264992",
        "meta_mean_motion": 14.45990531,
        "meta_eccentricity": 0.00417679,
        "meta_inclination": 24.9708,
        "meta_ra_of_asc_node": 324.6115,
        "meta_arg_of_pericenter": 245.8558,
        "meta_mean_anomaly": 136.6908,
        "meta_ephemeris_type": 0,
        "meta_classification_type": "U",
        "meta_norad_cat_id": 22490,
        "meta_element_set_no": 999,
        "meta_rev_at_epoch": 73302,
        "meta_bstar": 0.00017062415,
        "meta_mean_motion_dot": 8.1e-06,
        "meta_mean_motion_ddot": 0,
        "tle_line1": "1 22490U 93009B   25339.30015353  .00000810  00000+0  17062-3 0  9997",
        "tle_line2": "2 22490  24.9708 324.6115 0041767 245.8558 136.6908 14.45990531733022"
      },
      "geometry": {
        "type": "Point",
        "coordinates": [
          -178.99901297888968,
          -17.348600180814298
        ]
      }
    },
    {
      "type": "Feature",
      "properties": {
        "norad_id": 25397,
        "name": "TECHSAT 1B (GO-32)",
        "group": "resource",
        "lat": -40.178790149218614,
        "lon": -29.018347463736536,
        "alt_km": 817.5216745126118,
        "timestamp": "2025-12-06T05:40:08.892669+00:00",
        "meta_object_name": "TECHSAT 1B (GO-32)",
        "meta_object_id": "1998-043D",
        "meta_epoch": "2025-12-04T13:23:55.365216",
        "meta_mean_motion": 14.24373417,
        "meta_eccentricity": 0.0002213,
        "meta_inclination": 98.9913,
        "meta_ra_of_asc_node": 321.5819,
        "meta_arg_of_pericenter": 70.8607,
        "meta_mean_anomaly": 289.281,
        "meta_ephemeris_type": 0,
        "meta_classification_type": "U",
        "meta_norad_cat_id": 25397,
        "meta_element_set_no": 999,
        "meta_rev_at_epoch": 42362,
        "meta_bstar": 9.8436e-05,
        "meta_mean_motion_dot": 1.81e-06,
        "meta_mean_motion_ddot": 0,
        "tle_line1": "1 25397U 98043D   25338.55827969  .00000181  00000+0  98436-4 0  9995",
        "tle_line2": "2 25397  98.9913 321.5819 0002213  70.8607 289.2810 14.24373417423625"
      },
      "geometry": {
        "type": "Point",
        "coordinates": [
          -29.018347463736536,
          -40.178790149218614
        ]
      }
    },
    {
      "type": "Feature",
      "properties": {
        "norad_id": 25504,
        "name": "SCD 2",
        "group": "resource",
        "lat": -24.976130817379705,
        "lon": 92.97857597663116,
        "alt_km": 730.7333687785704,
        "timestamp": "2025-12-06T05:40:08.892685+00:00",
        "meta_object_name": "SCD 2",
        "meta_object_id": "1998-060A",
        "meta_epoch": "2025-12-05T07:37:24.133152",
        "meta_mean_motion": 14.45416872,
        "meta_eccentricity": 0.00166278,
        "meta_inclination": 24.9936,
        "meta_ra_of_asc_node": 187.6629,
        "meta_arg_of_pericenter": 234.163,
        "meta_mean_anomaly": 287.1333,
        "meta_ephemeris_type": 0,
        "meta_classification_type": "U",
        "meta_norad_cat_id": 25504,
        "meta_element_set_no": 999,
        "meta_rev_at_epoch": 43224,
        "meta_bstar": 0.00012907093,
        "meta_mean_motion_dot": 6.45e-06,
        "meta_mean_motion_ddot": 0,
        "tle_line1": "1 25504U 98060A   25339.31764043  .00000645  00000+0  12907-3 0  9995",
        "tle_line2": "2 25504  24.9936 187.6629 0016627 234.1630 287.1333 14.45416872432245"
      },
      "geometry": {
        "type": "Point",
        "coordinates": [
          92.97857597663116,
          -24.976130817379705
        ]
      }
    },
    {
      "type": "Feature",
      "properties": {
        "norad_id": 25757,
        "name": "DLR-TUBSAT",
        "group": "resource",
        "lat": -62.46266051766201,
        "lon": 127.56228503107036,
        "alt_km": 716.8714678351298,
        "timestamp": "2025-12-06T05:40:08.892698+00:00",
        "meta_object_name": "DLR-TUBSAT",
        "meta_object_id": "1999-029B",
        "meta_epoch": "2025-12-04T22:47:17.456640",
        "meta_mean_motion": 14.52353065,
        "meta_eccentricity": 0.0013476,
        "meta_inclination": 98.6556,
        "meta_ra_of_asc_node": 323.2231,
        "meta_arg_of_pericenter": 217.2961,
        "meta_mean_anomaly": 142.7299,
        "meta_ephemeris_type": 0,
        "meta_classification_type": "U",
        "meta_norad_cat_id": 25757,
        "meta_element_set_no": 999,
        "meta_rev_at_epoch": 40505,
        "meta_bstar": 8.4027e-05,
        "meta_mean_motion_dot": 2.94e-06,
        "meta_mean_motion_ddot": 0,
        "tle_line1": "1 25757U 99029B   25338.94950760  .00000294  00000+0  84027-4 0  9995",
        "tle_line2": "2 25757  98.6556 323.2231 0013476 217.2961 142.7299 14.52353065405054"
      },
      "geometry": {
        "type": "Point",
        "coordinates": [
          127.56228503107036,
          -62.46266051766201
        ]
      }
    },
    {
      "type": "Feature",
      "properties": {
        "norad_id": 25994,
        "name": "TERRA",
        "group": "resource",
        "lat": 71.20187330501662,
        "lon": -123.51710680022421,
        "alt_km": 680.812660437623,
        "timestamp": "2025-12-06T05:40:08.892710+00:00",
        "meta_object_name": "TERRA",
        "meta_object_id": "1999-068A",
        "meta_epoch": "2025-12-05T06:27:52.145856",
        "meta_mean_motion": 14.60939476,
        "meta_eccentricity": 0.00034645,
        "meta_inclination": 97.9759,
        "meta_ra_of_asc_node": 31.2276,
        "meta_arg_of_pericenter": 112.9038,
        "meta_mean_anomaly": 312.087,
        "meta_ephemeris_type": 0,
        "meta_classification_type": "U",
        "meta_norad_cat_id": 25994,
        "meta_element_set_no": 999,
        "meta_rev_at_epoch": 38129,
        "meta_bstar": 0.00021596868,
        "meta_mean_motion_dot": 1.013e-05,
        "meta_mean_motion_ddot": 0,
        "tle_line1": "1 25994U 99068A   25339.26935354  .00001013  00000+0  21597-3 0  9991",
        "tle_line2": "2 25994  97.9759  31.2276 0003464 112.9038 312.0870 14.60939476381292"
      },
      "geometry": {
        "type": "Point",
        "coordinates": [
          -123.51710680022421,
          71.20187330501662
        ]
      }
    },
    {
      "type": "Feature",
      "properties": {
        "norad_id": 27004,
        "name": "MAROC-TUBSAT",
        "group": "resource",
        "lat": 53.64266539787598,
        "lon": 135.00004088423725,
        "alt_km": 1003.855394743644,
        "timestamp": "2025-12-06T05:40:08.892722+00:00",
        "meta_object_name": "MAROC-TUBSAT",
        "meta_object_id": "2001-056D",
        "meta_epoch": "2025-12-05T01:54:00.023616",
        "meta_mean_motion": 13.70252339,
        "meta_eccentricity": 0.00190961,
        "meta_inclination": 99.7911,
        "meta_ra_of_asc_node": 147.39,
        "meta_arg_of_pericenter": 280.5585,
        "meta_mean_anomaly": 189.5201,
        "meta_ephemeris_type": 0,
        "meta_classification_type": "U",
        "meta_norad_cat_id": 27004,
        "meta_element_set_no": 999,
        "meta_rev_at_epoch": 19960,
        "meta_bstar": 3.6662742e-05,
        "meta_mean_motion_dot": -1.4e-07,
        "meta_mean_motion_ddot": 0,
        "tle_line1": "1 27004U 01056D   25339.07916694 -.00000014  00000+0  36663-4 0  9992",
        "tle_line2": "2 27004  99.7911 147.3900 0019096 280.5585 189.5201 13.70252339199609"
      },
      "geometry": {
        "type": "Point",
        "coordinates": [
          135.00004088423725,
          53.64266539787598
        ]
      }
    },
    {
      "type": "Feature",
      "properties": {
        "norad_id": 27424,
        "name": "AQUA",
        "group": "resource",
        "lat": -38.33016794967713,
        "lon": -52.27952655880629,
        "alt_km": 694.3426084067705,
        "timestamp": "2025-12-06T05:40:08.892734+00:00",
        "meta_object_name": "AQUA",
        "meta_object_id": "2002-022A",
        "meta_epoch": "2025-12-05T07:20:21.043104",
        "meta_mean_motion": 14.6178136,
        "meta_eccentricity": 8.47e-05,
        "meta_inclination": 98.4025,
        "meta_ra_of_asc_node": 300.0643,
        "meta_arg_of_pericenter": 111.3897,
        "meta_mean_anomaly": 356.549,
        "meta_ephemeris_type": 0,
        "meta_classification_type": "U",
        "meta_norad_cat_id": 27424,
        "meta_element_set_no": 999,
        "meta_rev_at_epoch": 25494,
        "meta_bstar": 0.00049689186,
        "meta_mean_motion_dot": 2.431e-05,
        "meta_mean_motion_ddot": 0,
        "tle_line1": "1 27424U 02022A   25339.30579911  .00002431  00000+0  49689-3 0  9990",
        "tle_line2": "2 27424  98.4025 300.0643 0000847 111.3897 356.5490 14.61781360254947"
      },
      "geometry": {
        "type": "Point",
        "coordinates": [
          -52.27952655880629,
          -38.33016794967713
        ]
      }
    }
  ]
}